ORBCOMM FM05 [-]        
1 25117U 97084F   24004.01853047  .00001590  00000+0  52398-3 0  9996
2 25117  45.0179  25.1973 0000781  16.7308 343.3568 14.41948823363987
ORBCOMM FM06 [+]        
1 25118U 97084G   24004.05239427  .00001723  00000+0  56444-3 0  9995
2 25118  45.0161  25.2135 0000612 296.0026  91.9987 14.41922935364903
ORBCOMM FM07 [-]        
1 25119U 97084H   24003.96266042  .00001702  00000+0  55899-3 0  9998
2 25119  45.0167  26.1138 0001578  22.7491 337.3429 14.41862173364887
ORBCOMM FM03 [-]        
1 25158U 98007B   24004.93254881  .00001218  00000+0  49993-3 0  9993
2 25158 107.9738 130.6703 0045160  93.6354 266.9951 14.31666547348224
ORBCOMM FM04 [+]        
1 25159U 98007C   24004.94382112  .00001068  00000+0  44291-3 0  9993
2 25159 107.9723 133.5455 0040592  91.4221 269.1568 14.31924398348396
ORBCOMM FM17 [-]        
1 25413U 98046A   24004.73785857  .00000692  00000+0  30336-3 0  9996
2 25413  44.9941 231.3541 0002504  72.2032 287.9087 14.32665301327187
ORBCOMM FM18 [-]        
1 25414U 98046B   24004.82999540  .00001144  00000+0  44484-3 0  9995
2 25414  44.9925 160.6234 0005019 146.8352 213.2810 14.35268755328115
ORBCOMM FM19 [+]        
1 25415U 98046C   24004.94958080  .00001198  00000+0  46466-3 0  9994
2 25415  44.9936 161.3045 0003745 142.3908   5.1584 14.35123692328091
